{
  "type": "FeatureCollection",
  "features": [
    {
      "type": "Feature",
      "properties": {
        "norad_id": 66527,
        "name": "STARLINK-35935",
        "group": "last-30-days",
        "lat": -21.190934322491906,
        "lon": -72.82832106210444,
        "alt_km": 390.2296328952161,
        "timestamp": "2025-12-07T20:38:12.866987+00:00",
        "meta_object_name": "STARLINK-35935",
        "meta_object_id": "2025-265M",
        "meta_epoch": "2025-12-07T06:00:04.999968",
        "meta_mean_motion": 15.62251209,
        "meta_eccentricity": 0.00015118,
        "meta_inclination": 43.0003,
        "meta_ra_of_asc_node": 86.21,
        "meta_arg_of_pericenter": 277.4229,
        "meta_mean_anomaly": 103.6136,
        "meta_ephemeris_type": 0,
        "meta_classification_type": "U",
        "meta_norad_cat_id": 66527,
        "meta_element_set_no": 999,
        "meta_rev_at_epoch": 411,
        "meta_bstar": -0.024486093,
        "meta_mean_motion_dot": -0.01955834,
        "meta_mean_motion_ddot": 0,
        "tle_line1": "1 66527U 25265M   25341.25005787 -.01955834  00000+0 -24486-1 0  9996",
        "tle_line2": "2 66527  43.0003  86.2100 0001511 277.4229 103.6136 15.62251209  4115"
      },
      "geometry": {
        "type": "Point",
        "coordinates": [
          -72.82832106210444,
          -21.190934322491906
        ]
      }
    },
    {
      "type": "Feature",
      "properties": {
        "norad_id": 66528,
        "name": "STARLINK-35928",
        "group": "last-30-days",
        "lat": -22.372014848085147,
        "lon": -71.20624950537959,
        "alt_km": 390.2554423924712,
        "timestamp": "2025-12-07T20:38:12.866997+00:00",
        "meta_object_name": "STARLINK-35928",
        "meta_object_id": "2025-265N",
        "meta_epoch": "2025-12-07T06:00:04.999968",
        "meta_mean_motion": 15.62250372,
        "meta_eccentricity": 0.00014879,
        "meta_inclination": 43.0007,
        "meta_ra_of_asc_node": 86.2052,
        "meta_arg_of_pericenter": 276.3193,
        "meta_mean_anomaly": 106.6345,
        "meta_ephemeris_type": 0,
        "meta_classification_type": "U",
        "meta_norad_cat_id": 66528,
        "meta_element_set_no": 999,
        "meta_rev_at_epoch": 411,
        "meta_bstar": -0.024461408,
        "meta_mean_motion_dot": -0.01954025,
        "meta_mean_motion_ddot": 0,
        "tle_line1": "1 66528U 25265N   25341.25005787 -.01954025  00000+0 -24461-1 0  9991",
        "tle_line2": "2 66528  43.0007  86.2052 0001487 276.3193 106.6345 15.62250372  4111"
      },
      "geometry": {
        "type": "Point",
        "coordinates": [
          -71.20624950537959,
          -22.372014848085147
        ]
      }
    },
    {
      "type": "Feature",
      "properties": {
        "norad_id": 66529,
        "name": "STARLINK-35933",
        "group": "last-30-days",
        "lat": -23.53415647514293,
        "lon": -69.56024569651959,
        "alt_km": 390.3670697064181,
        "timestamp": "2025-12-07T20:38:12.867009+00:00",
        "meta_object_name": "STARLINK-35933",
        "meta_object_id": "2025-265P",
        "meta_epoch": "2025-12-07T06:00:04.999968",
        "meta_mean_motion": 15.62251336,
        "meta_eccentricity": 0.00015714,
        "meta_inclination": 43.0008,
        "meta_ra_of_asc_node": 86.1999,
        "meta_arg_of_pericenter": 279.5919,
        "meta_mean_anomaly": 105.2765,
        "meta_ephemeris_type": 0,
        "meta_classification_type": "U",
        "meta_norad_cat_id": 66529,
        "meta_element_set_no": 999,
        "meta_rev_at_epoch": 411,
        "meta_bstar": -0.024461203,
        "meta_mean_motion_dot": -0.01954136,
        "meta_mean_motion_ddot": 0,
        "tle_line1": "1 66529U 25265P   25341.25005787 -.01954136  00000+0 -24461-1 0  9995",
        "tle_line2": "2 66529  43.0008  86.1999 0001571 279.5919 105.2765 15.62251336  4119"
      },
      "geometry": {
        "type": "Point",
        "coordinates": [
          -69.56024569651959,
          -23.53415647514293
        ]
      }
    },
    {
      "type": "Feature",
      "properties": {
        "norad_id": 66530,
        "name": "STARLINK-35961",
        "group": "last-30-days",
        "lat": -24.68132197833139,
        "lon": -67.87966734208686,
        "alt_km": 390.34365686930687,
        "timestamp": "2025-12-07T20:38:12.867021+00:00",
        "meta_object_name": "STARLINK-35961",
        "meta_object_id": "2025-265Q",
        "meta_epoch": "2025-12-07T06:00:04.999968",
        "meta_mean_motion": 15.62235563,
        "meta_eccentricity": 0.0001485,
        "meta_inclination": 43.0006,
        "meta_ra_of_asc_node": 86.1955,
        "meta_arg_of_pericenter": 276.1955,
        "meta_mean_anomaly": 110.6063,
        "meta_ephemeris_type": 0,
        "meta_classification_type": "U",
        "meta_norad_cat_id": 66530,
        "meta_element_set_no": 999,
        "meta_rev_at_epoch": 411,
        "meta_bstar": -0.024302545,
        "meta_mean_motion_dot": -0.01941845,
        "meta_mean_motion_ddot": 0,
        "tle_line1": "1 66530U 25265Q   25341.25005787 -.01941845  00000+0 -24303-1 0  9995",
        "tle_line2": "2 66530  43.0006  86.1955 0001485 276.1955 110.6063 15.62235563  4113"
      },
      "geometry": {
        "type": "Point",
        "coordinates": [
          -67.87966734208686,
          -24.68132197833139
        ]
      }
    },
    {
      "type": "Feature",
      "properties": {
        "norad_id": 66531,
        "name": "STARLINK-35960",
        "group": "last-30-days",
        "lat": -25.808294422514347,
        "lon": -66.1709757312062,
        "alt_km": 390.35853691174907,
        "timestamp": "2025-12-07T20:38:12.867031+00:00",
        "meta_object_name": "STARLINK-35960",
        "meta_object_id": "2025-265R",
        "meta_epoch": "2025-12-07T06:00:04.999968",
        "meta_mean_motion": 15.62252392,
        "meta_eccentricity": 0.00014715,
        "meta_inclination": 43.0007,
        "meta_ra_of_asc_node": 86.1902,
        "meta_arg_of_pericenter": 274.747,
        "meta_mean_anomaly": 113.956,
        "meta_ephemeris_type": 0,
        "meta_classification_type": "U",
        "meta_norad_cat_id": 66531,
        "meta_element_set_no": 999,
        "meta_rev_at_epoch": 411,
        "meta_bstar": -0.024468754,
        "meta_mean_motion_dot": -0.01954666,
        "meta_mean_motion_ddot": 0,
        "tle_line1": "1 66531U 25265R   25341.25005787 -.01954666  00000+0 -24469-1 0  9994",
        "tle_line2": "2 66531  43.0007  86.1902 0001471 274.7470 113.9560 15.62252392  4115"
      },
      "geometry": {
        "type": "Point",
        "coordinates": [
          -66.1709757312062,
          -25.808294422514347
        ]
      }
    },
    {
      "type": "Feature",
      "properties": {
        "norad_id": 66532,
        "name": "STARLINK-35914",
        "group": "last-30-days",
        "lat": -26.912167201637388,
        "lon": -64.43261842435494,
        "alt_km": 390.46652150271075,
        "timestamp": "2025-12-07T20:38:12.867041+00:00",
        "meta_object_name": "STARLINK-35914",
        "meta_object_id": "2025-265S",
        "meta_epoch": "2025-12-07T06:00:04.999968",
        "meta_mean_motion": 15.62249048,
        "meta_eccentricity": 0.00014903,
        "meta_inclination": 43.0003,
        "meta_ra_of_asc_node": 86.1855,
        "meta_arg_of_pericenter": 277.4505,
        "meta_mean_anomaly": 113.174,
        "meta_ephemeris_type": 0,
        "meta_classification_type": "U",
        "meta_norad_cat_id": 66532,
        "meta_element_set_no": 999,
        "meta_rev_at_epoch": 411,
        "meta_bstar": -0.024466534,
        "meta_mean_motion_dot": -0.01954297,
        "meta_mean_motion_ddot": 0,
        "tle_line1": "1 66532U 25265S   25341.25005787 -.01954297  00000+0 -24467-1 0  9993",
        "tle_line2": "2 66532  43.0003  86.1855 0001490 277.4505 113.1740 15.62249048  4115"
      },
      "geometry": {
        "type": "Point",
        "coordinates": [
          -64.43261842435494,
          -26.912167201637388
        ]
      }
    },
    {
      "type": "Feature",
      "properties": {
        "norad_id": 66533,
        "name": "STARLINK-35707",
        "group": "last-30-days",
        "lat": -27.994735368647213,
        "lon": -62.65936382807897,
        "alt_km": 390.54898738752036,
        "timestamp": "2025-12-07T20:38:12.867051+00:00",
        "meta_object_name": "STARLINK-35707",
        "meta_object_id": "2025-265T",
        "meta_epoch": "2025-12-07T06:00:04.999968",
        "meta_mean_motion": 15.62254848,
        "meta_eccentricity": 0.00015309,
        "meta_inclination": 43.0001,
        "meta_ra_of_asc_node": 86.181,
        "meta_arg_of_pericenter": 279.7597,
        "meta_mean_anomaly": 112.7759,
        "meta_ephemeris_type": 0,
        "meta_classification_type": "U",
        "meta_norad_cat_id": 66533,
        "meta_element_set_no": 999,
        "meta_rev_at_epoch": 411,
        "meta_bstar": -0.024532522,
        "meta_mean_motion_dot": -0.01959359,
        "meta_mean_motion_ddot": 0,
        "tle_line1": "1 66533U 25265T   25341.25005787 -.01959359  00000+0 -24533-1 0  9992",
        "tle_line2": "2 66533  43.0001  86.1810 0001530 279.7597 112.7759 15.62254848  4115"
      },
      "geometry": {
        "type": "Point",
        "coordinates": [
          -62.65936382807897,
          -27.994735368647213
        ]
      }
    }
  ]
}